NORAD_CAT_ID,OBJECT_NAME,OBJECT_TYPE,EPOCH,MEAN_MOTION,ECCENTRICITY,INCLINATION,RA_OF_ASC_NODE,ARG_OF_PERICENTER,MEAN_ANOMALY,BSTAR,MEAN_MOTION_DOT,MEAN_MOTION_DDOT,TLE_LINE0,TLE_LINE1,TLE_LINE2,SEMIMAJOR_AXIS,PERIOD,APOGEE,PERIGEE,DECAYED
56482.0,STARLINK-6220,PAYLOAD,2024-04-18 06:46:45,14.98322463,0.0002934,70.0003,65.1908,268.9206,91.1616,-1.6326e-05,-2.88e-06,0.0,0 STARLINK-6220,1 56482U 23064AL  24109.28246901 -.00000288  00000-0 -16326-4 0  9990,2 56482  70.0003  65.1908 0002934 268.9206  91.1616 14.98322463 52325,6950.216,96.107,574.12,570.042,0.0
56482.0,STARLINK-6220,PAYLOAD,2024-04-18 21:11:57,14.98329633,0.0003129,70.0001,63.6758,271.1538,88.9262,-7.4077e-06,-1.81e-06,0.0,0 STARLINK-6220,1 56482U 23064AL  24109.88330491 -.00000181  00000-0 -74077-5 0  9994,2 56482  70.0001  63.6758 0003129 271.1538  88.9262 14.98329633 52776,6950.194,96.107,574.234,569.884,0.0
56482.0,STARLINK-6220,PAYLOAD,2024-04-18 22:48:05,14.98330416,0.0003129,70.0005,63.5068,271.4398,88.6403,2.4533e-05,2e-06,0.0,0 STARLINK-6220,1 56482U 23064AL  24109.95006353  .00000200  00000-0  24533-4 0  9990,2 56482  70.0005  63.5068 0003129 271.4398  88.6403 14.98330416 52427,6950.192,96.107,574.231,569.882,0.0
56482.0,STARLINK-6220,PAYLOAD,2024-04-19 05:12:37,14.98333363,0.0003235,70.0007,62.8346,274.6091,85.4698,0.00018224,2.082e-05,0.0,0 STARLINK-6220,1 56482U 23064AL  24110.21709727  .00002082  00000-0  18224-3 0  9995,2 56482  70.0007  62.8346 0003235 274.6091  85.4698 14.98333363 52822,6950.182,96.107,574.296,569.799,0.0
56482.0,STARLINK-6220,PAYLOAD,2024-04-19 06:48:45,14.9834061,0.0002812,70.0009,62.6668,262.9544,97.1295,0.0001021,1.126e-05,0.0,0 STARLINK-6220,1 56482U 23064AL  24110.28385426  .00001126  00000-0  10210-3 0  9993,2 56482  70.0009  62.6668 0002812 262.9544  97.1295 14.98340610 52839,6950.16,96.106,573.979,570.071,0.0
56482.0,STARLINK-6220,PAYLOAD,2024-04-19 21:13:58,14.98332712,0.0002224,70.0022,61.1523,249.1757,110.9164,0.00011822,1.318e-05,0.0,0 STARLINK-6220,1 56482U 23064AL  24110.88469911  .00001318  00000-0  11822-3 0  9994,2 56482  70.0022  61.1523 0002224 249.1757 110.9164 14.98332712 52921,6950.185,96.107,573.595,570.504,0.0
56482.0,STARLINK-6220,PAYLOAD,2024-04-19 22:50:06,14.98304569,0.0002392,70.0021,60.9841,250.8491,109.2409,0.00059246,6.978e-05,0.0,0 STARLINK-6220,1 56482U 23064AL  24110.95145998  .00006978  00000-0  59246-3 0  9997,2 56482  70.0021  60.9841 0002392 250.8491 109.2409 14.98304569 52573,6950.272,96.109,573.799,570.474,0.0
56482.0,STARLINK-6220,PAYLOAD,2024-04-20 06:50:45,14.98344828,0.000266,70.0017,60.1444,242.4626,117.6263,0.00024874,2.877e-05,0.0,0 STARLINK-6220,1 56482U 23064AL  24111.28524442  .00002877  00000-0  24874-3 0  9992,2 56482  70.0017  60.1444 0002660 242.4626 117.6263 14.98344828 52982,6950.147,96.106,573.861,570.163,0.0
56482.0,STARLINK-6220,PAYLOAD,2024-04-20 19:39:51,14.98330059,8.04e-05,70.0062,58.8053,201.6757,158.4368,2.3931e-05,1.93e-06,0.0,0 STARLINK-6220,1 56482U 23064AL  24111.81934523  .00000193  00000-0  23931-4 0  9999,2 56482  70.0062  58.8053 0000804 201.6757 158.4368 14.98330059 53062,6950.193,96.107,572.617,571.499,0.0
56482.0,STARLINK-6220,PAYLOAD,2024-04-21 03:40:33,14.98314537,0.000273,70.0016,57.9579,246.2551,113.8321,-0.000264,-3.24e-05,0.0,0 STARLINK-6220,1 56482U 23064AL  24112.15316154 -.00003240  00000-0 -26400-3 0  9992,2 56482  70.0016  57.9579 0002730 246.2551 113.8321 14.98314537 53114,6950.241,96.108,574.003,570.208,0.0
56482.0,STARLINK-6220,PAYLOAD,2024-04-21 06:52:49,14.98317214,0.0002927,70.0007,57.6195,258.6357,101.4474,-0.00024624,-3.029e-05,0.0,0 STARLINK-6220,1 56482U 23064AL  24112.28668058 -.00003029  00000-0 -24624-3 0  9990,2 56482  70.0007  57.6195 0002927 258.6357 101.4474 14.98317214 52772,6950.232,96.108,574.132,570.063,0.0
56482.0,STARLINK-6220,PAYLOAD,2024-04-21 22:54:08,14.98339566,0.0002408,70.0018,55.9322,261.8025,98.2861,1.5998e-05,9.8e-07,0.0,0 STARLINK-6220,1 56482U 23064AL  24112.95426050  .00000098  00000-0  15998-4 0  9994,2 56482  70.0018  55.9322 0002408 261.8025  98.2861 14.98339566 52877,6950.163,96.106,573.702,570.355,0.0
56482.0,STARLINK-6220,PAYLOAD,2024-04-22 03:42:31,14.98349966,0.000167,70.0043,55.4295,224.8917,135.2108,0.000123,1.376e-05,0.0,0 STARLINK-6220,1 56482U 23064AL  24113.15452973  .00001376  00000-0  12300-3 0  9993,2 56482  70.0043  55.4295 0001670 224.8917 135.2108 14.98349966 53263,6950.131,96.106,573.157,570.835,0.0
56482.0,STARLINK-6220,PAYLOAD,2024-04-22 05:18:38,14.98357012,0.000205,70.0027,55.2609,253.651,106.4423,0.00015968,1.814e-05,0.0,0 STARLINK-6220,1 56482U 23064AL  24113.22128230  .00001814  00000-0  15968-3 0  9997,2 56482  70.0027  55.2609 0002050 253.6510 106.4423 14.98357012 52916,6950.109,96.105,573.399,570.55,0.0
56482.0,STARLINK-6220,PAYLOAD,2024-04-22 19:43:52,14.98317491,0.0002215,70.0041,53.7483,238.6966,121.3977,0.00035291,4.119e-05,0.0,0 STARLINK-6220,1 56482U 23064AL  24113.82213893  .00004119  00000-0  35291-3 0  9995,2 56482  70.0041  53.7483 0002215 238.6966 121.3977 14.98317491 53363,6950.232,96.108,573.636,570.557,0.0
56482.0,STARLINK-6220,PAYLOAD,2024-04-22 22:56:09,14.98315471,0.0002954,70.0005,53.4086,263.3815,96.7008,0.0001705,1.941e-05,0.0,0 STARLINK-6220,1 56482U 23064AL  24113.95566530  .00001941  00000-0  17050-3 0  9991,2 56482  70.0005  53.4086 0002954 263.3815  96.7008 14.98315471 53026,6950.238,96.108,574.156,570.05,0.0
56482.0,STARLINK-6220,PAYLOAD,2024-04-23 03:44:33,14.98314602,0.0003008,70.0003,52.9028,261.7832,98.2986,0.00014549,1.643e-05,0.0,0 STARLINK-6220,1 56482U 23064AL  24114.15594757  .00001643  00000-0  14549-3 0  9995,2 56482  70.0003  52.9028 0003008 261.7832  98.2986 14.98314602 53416,6950.241,96.108,574.196,570.015,0.0
56482.0,STARLINK-6220,PAYLOAD,2024-04-23 05:20:41,14.9831577,0.0003004,70.0004,52.7346,261.4794,98.6025,0.00015491,1.755e-05,0.0,0 STARLINK-6220,1 56482U 23064AL  24114.22270705  .00001755  00000-0  15491-3 0  9998,2 56482  70.0004  52.7346 0003004 261.4794  98.6025 14.98315770 53064,6950.237,96.108,574.19,570.014,0.0
56482.0,STARLINK-6220,PAYLOAD,2024-04-23 21:22:02,14.98339908,0.0002945,70.0006,51.0523,259.8273,100.2553,-0.00027582,-3.383e-05,0.0,0 STARLINK-6220,1 56482U 23064AL  24114.89030678 -.00003383  00000-0 -27582-3 0  9999,2 56482  70.0006  51.0523 0002945 259.8273 100.2553 14.98339908 53527,6950.162,96.106,574.074,569.98,0.0
56482.0,STARLINK-6220,PAYLOAD,2024-04-24 03:46:34,14.98344485,0.0002486,70.0023,50.3806,243.3762,116.7142,-0.00018927,-2.351e-05,0.0,0 STARLINK-6220,1 56482U 23064AL  24115.15733928 -.00002351  00000-0 -18927-3 0  9994,2 56482  70.0023  50.3806 0002486 243.3762 116.7142 14.98344485 53569,6950.148,96.106,573.741,570.285,0.0
56482.0,STARLINK-6220,PAYLOAD,2024-04-24 05:22:41,14.98349162,0.0002825,70.0012,50.2115,257.4598,102.6245,-0.00015218,-1.909e-05,0.0,0 STARLINK-6220,1 56482U 23064AL  24115.22409540 -.00001909  00000-0 -15218-3 0  9990,2 56482  70.0012  50.2115 0002825 257.4598 102.6245 14.98349162 53216,6950.134,96.106,573.962,570.035,0.0
56482.0,STARLINK-6220,PAYLOAD,2024-04-24 21:24:03,14.98320881,0.0002398,70.0022,48.5292,250.9097,109.1803,0.00010059,1.107e-05,0.0,0 STARLINK-6220,1 56482U 23064AL  24115.89170434  .00001107  00000-0  10059-3 0  9996,2 56482  70.0022  48.5292 0002398 250.9097 109.1803 14.98320881 53679,6950.221,96.108,573.753,570.419,0.0
56482.0,STARLINK-6220,PAYLOAD,2024-04-25 05:24:43,14.98322026,0.000254,70.0026,47.689,253.6098,106.4782,8.8539e-05,9.63e-06,0.0,0 STARLINK-6220,1 56482U 23064AL  24116.22550570  .00000963  00000-0  88539-4 0  9995,2 56482  70.0026  47.6890 0002540 253.6098 106.4782 14.98322026 53362,6950.218,96.108,573.848,570.317,0.0
56482.0,STARLINK-6220,PAYLOAD,2024-04-25 21:26:03,14.98332757,0.0002836,70.0019,46.0057,255.6017,104.4828,2.3639e-05,1.89e-06,0.0,0 STARLINK-6220,1 56482U 23064AL  24116.89310152  .00000189  00000-0  23639-4 0  9998,2 56482  70.0019  46.0057 0002836 255.6017 104.4828 14.98332757 53825,6950.184,96.107,574.02,570.078,0.0
56482.0,STARLINK-6220,PAYLOAD,2024-04-26 11:51:16,14.98333462,0.0001786,70.004,44.4857,282.9364,77.1596,-6.7411e-07,-1.01e-06,0.0,0 STARLINK-6220,1 56482U 23064AL  24117.49394334 -.00000101  00000-0 -67411-6 0  9993,2 56482  70.0040  44.4857 0001786 282.9364  77.1596 14.98333462 53552,6950.182,96.107,573.288,570.806,0.0
56482.0,STARLINK-6220,PAYLOAD,2024-04-26 19:51:56,14.98328569,0.0002316,70.0024,43.6434,272.8278,87.2616,0.00015814,1.794e-05,0.0,0 STARLINK-6220,1 56482U 23064AL  24117.82773828  .00001794  00000-0  15814-3 0  9993,2 56482  70.0024  43.6434 0002316 272.8278  87.2616 14.98328569 53601,6950.197,96.107,573.672,570.453,0.0
56482.0,STARLINK-6220,PAYLOAD,2024-04-27 03:52:36,14.9833524,0.0002387,70.002,42.8027,274.1038,85.9848,0.0001557,1.766e-05,0.0,0 STARLINK-6220,1 56482U 23064AL  24118.16153373  .00001766  00000-0  15570-3 0  9996,2 56482  70.0020  42.8027 0002387 274.1038  85.9848 14.98335240 54015,6950.177,96.107,573.701,570.383,0.0
56482.0,STARLINK-6220,PAYLOAD,2024-04-27 11:53:17,14.98333803,0.0002355,70.0047,41.961,283.8127,76.2769,1.7604e-08,-9.3e-07,0.0,0 STARLINK-6220,1 56482U 23064AL  24118.49533776 -.00000093  00000-0  17604-7 0  9998,2 56482  70.0047  41.9610 0002355 283.8127  76.2769 14.98333803 53706,6950.181,96.107,573.683,570.409,0.0
56482.0,STARLINK-6220,PAYLOAD,2024-04-27 19:53:57,14.98328713,0.0002062,70.0017,41.1228,255.847,104.246,-7.9842e-05,-1.045e-05,0.0,0 STARLINK-6220,1 56482U 23064AL  24118.82914279 -.00001045  00000-0 -79842-4 0  9994,2 56482  70.0017  41.1228 0002062 255.8470 104.2460 14.98328713 54115,6950.197,96.107,573.495,570.629,0.0
56482.0,STARLINK-6220,PAYLOAD,2024-04-27 21:30:06,14.9832646,0.0002209,70.0012,40.9549,255.7363,104.3551,-0.00010656,-1.364e-05,0.0,0 STARLINK-6220,1 56482U 23064AL  24118.89590487 -.00001364  00000-0 -10656-3 0  9993,2 56482  70.0012  40.9549 0002209 255.7363 104.3551 14.98326460 53765,6950.204,96.107,573.604,570.534,0.0
